STARLINK-37484          
1 69527U 26133V   26167.83335647 -.00955979  36255-3 -74634-3 0  9992
2 69527  53.1603 324.7475 0001141  75.0379 118.2081 16.14078858  1852
STARLINK-37523          
1 69528U 26133W   26167.83335647 -.00967338  37117-3 -74691-3 0  9996
2 69528  53.1603 324.7436 0000355  70.1450 124.9178 16.14240122  1858
STARLINK-37369          
1 69529U 26133X   26167.83335647 -.00976590  37847-3 -74521-3 0  9999
2 69529  53.1601 324.7398 0000185  75.1797 121.6801 16.14409735  1858
STARLINK-37670          
1 69530U 26133Y   26167.83335647 -.00980171  38269-3 -73064-3 0  9991
2 69530  53.1601 324.7372 0001075  51.9906 146.2557 16.14740465  1854
STARLINK-37897          
1 69531U 26133Z   26167.83335647 -.00926664  34669-3 -68109-3 0  9993
2 69531  53.1600 324.7311 0000509  53.8026 147.1888 16.14930206  1808
STARLINK-37933          
1 69532U 26133AA  26167.83335647 -.00886527  32147-3 -63675-3 0  9999
2 69532  53.1600 324.7281 0000783  42.8798 159.4933 16.15245283  1805
STARLINK-37890          
1 69533U 26133AB  26167.83335647 -.00856953  30313-3 -60796-3 0  9994
2 69533  53.1602 324.7245 0001033  46.6878 157.4438 16.15411532  1808
STARLINK-37407          
1 69534U 26133AC  26167.83335647 -.00903262  33443-3 -62948-3 0  9999
2 69534  53.1599 324.7177 0000981  45.8631 161.2867 16.15669586  1855
STARLINK-37888          
1 69535U 26133AD  26167.83335647 -.00823564  28408-3 -56442-3 0  9993
2 69535  53.1601 324.7146 0000970  38.7978 169.9340 16.15885873  1804
STARLINK-37889          
1 69536U 26133AE  26167.83335647 -.01101886  46031-3 -94935-3 0  9992
2 69536  53.1619 324.7749 0000666  67.0979 113.3950 16.12684030  1800
2026-134A               
1 69538U 26134A   26167.72437802  .00000587  00000+0  41008-4 0  9998
2 69538  97.7003 237.8242 0014154 273.9919  85.9691 15.09200639   241
2026-134B               
1 69539U 26134B   26167.72421602  .00001264  00000+0  83138-4 0  9993
2 69539  97.6974 237.8233 0014487 276.4553  83.5026 15.09360646   239
2026-134C               
1 69540U 26134C   26167.72418662  .00001265  00000+0  83187-4 0  9992
2 69540  97.6988 237.8231 0013786 277.2768  82.6893 15.09388935   235
2026-134D               
1 69541U 26134D   26167.72412390  .00001266  00000+0  83078-4 0  9995
2 69541  97.7025 237.8255 0014840 276.5336  83.4203 15.09445295   237
2026-134E               
1 69542U 26134E   26167.72410194  .00001267  00000+0  83106-4 0  9999
2 69542  97.7041 237.8242 0014658 277.3930  82.5632 15.09467803   233
2026-134F               
1 69543U 26134F   26167.72405751  .00001269  00000+0  83160-4 0  9995
2 69543  97.6997 237.8242 0013913 279.0587  80.9067 15.09514165   231
2026-134G               
1 69544U 26134G   26167.72397038  .00001271  00000+0  83063-4 0  9999
2 69544  97.7039 237.8238 0014373 280.6343  79.3267 15.09597497   237
2026-134H               
1 69545U 26134H   26167.72390394  .00001274  00000+0  83079-4 0  9998
2 69545  97.7027 237.8253 0014258 282.3147  77.6485 15.09663011   223
SHIJIAN-31              
1 69570U 26136A   26167.84805573  .00006163  24751-6  28088-3 0  9997
2 69570  63.4649 356.1810 7310406 171.7246 356.2040  2.28095748    54
